STARLINK-5377           
1 56141U 23046BB  24075.13716933  .00001756  00000+0  14506-3 0  9990
2 56141  43.0027 122.7098 0001235 275.9717  84.0984 15.02537390 53762
STARLINK-5376           
1 56142U 23046BC  24075.34770474  .00003187  00000+0  25082-3 0  9995
2 56142  43.0008 121.7089 0001414 264.7764  95.2917 15.02549599 53795
STARLINK-5016           
1 56143U 23046BD  24075.53048488 -.00004049  00000+0 -28499-3 0  9995
2 56143  43.0011 120.5002 0001410 264.7322  95.3359 15.02518171 53825
STARLINK-5374           
1 56144U 23046BE  24075.47462651 -.00054463  00000+0 -41016-2 0  9995
2 56144  43.0035 120.9430 0001663 274.5468  85.5184 15.02039789 53810
STARLINK-5370           
1 56145U 23046BF  24075.25001157  .01384810  00000+0  12713-1 0  9994
2 56145  43.0010  76.9793 0001560 267.7159   4.5956 15.64245240 54293
STARLINK-5111           
1 56146U 23046BG  24074.60201976  .00001407  00000+0  11920-3 0  9992
2 56146  43.0011 125.5730 0001275 256.6961 103.3739 15.02537265 53141
STARLINK-5140           
1 56147U 23046BH  24075.44156164 -.00014021  00000+0 -10237-2 0  9991
2 56147  43.0026  82.4773 0000987 253.6484 106.4249 15.02580787 54252
STARLINK-5089           
1 56148U 23046BJ  24075.11363657  .00000742  00000+0  69999-4 0  9997
2 56148  43.0033  84.3188 0001022 271.5141  88.5584 15.02533967 54207
STARLINK-30107          
1 56287U 23056B   24075.42503069  .00000349  00000+0  40890-4 0  9991
2 56287  43.0017 185.8925 0000876 277.8144  82.2599 15.02535723 50471
STARLINK-30106          
1 56288U 23056C   24074.66048069  .00000256  00000+0  34024-4 0  9990
2 56288  43.0023 189.6362 0001456 264.8944  95.1732 15.02532610 50963
STARLINK-30095          
1 56289U 23056D   24075.48867254  .00010272  00000+0  77434-3 0  9997
2 56289  43.0017 159.3732 0000988 264.2285  95.8445 15.02537959 50793
STARLINK-30103          
1 56290U 23056E   24074.79010164 -.00000261  00000+0 -42528-5 0  9999
2 56290  43.0021 188.8899 0001536 273.4946  86.5720 15.02535320 50981
STARLINK-30113          
1 56291U 23056F   24075.32858654  .00000023  00000+0  16783-4 0  9991
2 56291  43.0006 186.0437 0001201 282.0379  78.0329 15.02528919 50479
STARLINK-30098          
1 56292U 23056G   24074.72028732 -.00000258  00000+0 -40231-5 0  9999
2 56292  43.0012 189.2181 0001338 287.7095  72.3601 15.02540141 50972
STARLINK-30090          
1 56293U 23056H   24074.78022542  .00000427  00000+0  46673-4 0  9990
2 56293  43.0015 189.6449 0001433 258.7076 101.3606 15.02538422 50977
STARLINK-30049          
1 56294U 23056J   24075.50814358  .00004098  00000+0  31821-3 0  9992
2 56294  43.0016 185.5902 0001339 259.0819 100.9872 15.02541314 50482
STARLINK-30083          
1 56295U 23056K   24075.23607602  .00011615  00000+0  87343-3 0  9998
2 56295  43.0014 160.9044 0001417 279.4574  80.6108 15.02538150 50745
STARLINK-30089          
1 56296U 23056L   24075.36932709 -.00004779  00000+0 -33931-3 0  9991
2 56296  43.0018 147.1458 0001061 293.6457  66.4274 15.02496536 50915
STARLINK-30086          
1 56297U 23056M   24075.42171461 -.00024634  00000+0 -18186-2 0  9995
2 56297  43.0004 185.8048 0002044 303.2052  56.8594 15.02457466 50474
STARLINK-30109          
1 56298U 23056N   24075.49482557  .00001014  00000+0  90094-4 0  9999
2 56298  43.0012 185.4969 0001266 271.3768  88.6929 15.02533609 50497
STARLINK-30108          
1 56299U 23056P   24075.46190249  .00005743  00000+0  43988-3 0  9993
2 56299  43.0014 173.1113 0001459 263.2563  96.8113 15.02536830 50622
STARLINK-30104          
1 56300U 23056Q   24075.51470063  .00007000  00000+0  53278-3 0  9998
2 56300  43.0010 184.8639 0001134 252.5773 107.4946 15.02533795 50492
STARLINK-30101          
1 56301U 23056R   24075.47818635  .00003237  00000+0  25453-3 0  9997
2 56301  43.0004 185.4302 0001281 284.2938  75.7762 15.02539026 50494
STARLINK-30111          
1 56302U 23056S   24075.33856525  .00001001  00000+0  89184-4 0  9992
2 56302  43.0004 186.0395 0001312 263.9856  96.0837 15.02531957 50463
STARLINK-30097          
1 56303U 23056T   24075.55038174  .00023382  00000+0  68005-3 0  9993
2 56303  42.9998 145.9394 0029769  29.4008 330.8513 15.34566710 50951
STARLINK-30099          
1 56304U 23056U   24075.40170294  .00008064  00000+0  61114-3 0  9992
2 56304  43.0010 185.6448 0001675 272.5131  87.5519 15.02548424 50470
STARLINK-30094          
1 56305U 23056V   24075.33190315 -.00001395  00000+0 -88224-4 0  9995
2 56305  43.0019 185.9703 0001011 255.5239 104.5491 15.02530064 50471
STARLINK-30112          
1 56306U 23056W   24075.54132240  .00000876  00000+0  79895-4 0  9997
2 56306  43.0024 184.9830 0001469 260.5377  99.5299 15.02539263 50507
STARLINK-6038           
1 56317U 23058A   24074.96584103  .00000203  00000+0  20377-4 0  9990
2 56317  97.6574  77.0643 0001906 118.5014 241.6402 15.01258955 48906
STARLINK-5954           
1 56318U 23058B   24074.89548241  .00000820  00000+0  68425-4 0  9997
2 56318  97.6592  77.0094 0001803  92.5590 267.5841 15.01248921 49034
STARLINK-6039           
1 56319U 23058C   24074.89363293  .00000393  00000+0  35216-4 0  9997
2 56319  97.6583  77.0148 0001508  93.5717 266.5679 15.01258757 49035
STARLINK-5988           
1 56320U 23058D   24074.96608515  .00000284  00000+0  26668-4 0  9996
2 56320  97.6575  77.0643 0002046 123.5910 236.5509 15.01260705 48905
STARLINK-5876           
1 56321U 23058E   24075.48794310 -.00102084  00000+0 -80647-2 0  9992
2 56321  97.6559  77.6152 0002482 145.9049 214.2335 15.01228618 48967
STARLINK-6033           
1 56322U 23058F   24074.89733289  .00000984  00000+0  81201-4 0  9998
2 56322  97.6586  77.0034 0002109 101.2436 258.9025 15.01246666 49035
STARLINK-6035           
1 56323U 23058G   24074.95658210 -.00000221  00000+0 -12585-4 0  9991
2 56323  97.6576  77.0893 0001860  94.1605 265.9832 15.01259869 48907
STARLINK-6034           
1 56324U 23058H   24074.95843097  .00000374  00000+0  33691-4 0  9999
2 56324  97.6581  77.0857 0000900  97.2596 262.8730 15.01262005 48900
STARLINK-5981           
1 56325U 23058J   24075.48238648 -.00001158  00000+0 -85573-4 0  9998
2 56325  97.6571  77.6286 0002577  78.9833 281.1681 15.01260971 48981
STARLINK-5980           
1 56326U 23058K   24074.95867897  .00000351  00000+0  31921-4 0  9994
2 56326  97.6578  77.0848 0001752  91.3160 268.8264 15.01258912 48906
STARLINK-5997           
1 56327U 23058L   24074.94386506  .00000346  00000+0  31558-4 0  9997
2 56327  97.6564  77.1112 0003621  67.6222 292.5385 15.01259846 49398
STARLINK-5992           
1 56328U 23058M   24074.95102607  .00000522  00000+0  45243-4 0  9999
2 56328  97.6578  77.1000 0002001  89.9532 270.1921 15.01259318 49394
STARLINK-5984           
1 56329U 23058N   24074.94732382 -.00000021  00000+0  29359-5 0  9994
2 56329  97.6568  77.1059 0003304  76.0228 284.1363 15.01260370 49399
STARLINK-5967           
1 56330U 23058P   24075.48448780  .00000909  00000+0  75346-4 0  9992
2 56330  97.6570  77.6251 0002616  85.9554 274.1969 15.01262442 48986
STARLINK-5991           
1 56331U 23058Q   24075.54164049  .00000709  00000+0  59832-4 0  9993
2 56331  97.6562  77.7050 0003947  63.9655 296.1976 15.01257254 48990
STARLINK-5093           
1 56332U 23058R   24075.01953119  .00000359  00000+0  32578-4 0  9999
2 56332  97.6577  77.1627 0002058  88.4806 271.6654 15.01259714 48919
STARLINK-5553           
1 56333U 23058S   24074.93991653  .00000126  00000+0  14438-4 0  9992
2 56333  97.6564  77.1166 0003371  62.6506 297.5061 15.01260265 49399
STARLINK-5548           
1 56334U 23058T   24075.50001157  .00014591  00000+0  11382-2 0  9992
2 56334  97.6567  77.6591 0003640  77.5537  47.6566 15.01257385 48985
STARLINK-5559           
1 56335U 23058U   24075.00125332 -.00000773  00000+0 -55562-4 0  9999
2 56335  97.6543  77.1841 0002913  68.0241 292.1292 15.01257764 48919
STARLINK-5562           
1 56336U 23058V   24074.94547251  .00000148  00000+0  16145-4 0  9998
2 56336  97.6565  77.1089 0003473  66.0845 294.0743 15.01260520 49397
STARLINK-5561           
1 56337U 23058W   24075.46966445  .00000068  00000+0  98852-5 0  9994
2 56337  97.6571  77.6439 0003114  57.4651 302.6874 15.01262673 48986
STARLINK-5554           
1 56338U 23058X   24075.20468062 -.00004419  00000+0 -33972-3 0  9995
2 56338  97.6564  77.3812 0003539  51.5595 308.5947 15.01247452 48944
STARLINK-5552           
1 56339U 23058Y   24074.99730851 -.00000708  00000+0 -50527-4 0  9992
2 56339  97.6562  77.1918 0002303  81.0096 279.1389 15.01263361 48917
STARLINK-5540           
1 56340U 23058Z   24075.00288375 -.00001860  00000+0 -14033-3 0  9997
2 56340  97.6559  77.1846 0003385  46.5665 313.5841 15.01242122 48912
STARLINK-5543           
1 56341U 23058AA  24075.46759314 -.00001194  00000+0 -88391-4 0  9993
2 56341  97.6553  77.6463 0002900  50.8056 309.3425 15.01256985 48981
STARLINK-5955           
1 56342U 23058AB  24074.99916395  .00009422  00000+0  73809-3 0  9992
2 56342  97.6563  77.1899 0002947  55.7430 304.4073 15.01211626 48913
STARLINK-5976           
1 56343U 23058AC  24074.92509885  .00000002  00000+0  47617-5 0  9993
2 56343  97.6557  77.1318 0001886  86.4965 273.6475 15.01259533 49393
STARLINK-5974           
1 56344U 23058AD  24074.92880406 -.00000132  00000+0 -56904-5 0  9990
2 56344  97.6563  77.1278 0002451  51.1208 309.0235 15.01259818 49398
STARLINK-5979           
1 56345U 23058AE  24074.92324900 -.00000175  00000+0 -90011-5 0  9997
2 56345  97.6555  77.1330 0002057  93.8363 266.3096 15.01258279 49396
STARLINK-5837           
1 56346U 23058AF  24074.92695162 -.00000140  00000+0 -62864-5 0  9996
2 56346  97.6562  77.1301 0002014  90.6933 269.4522 15.01259312 49391
STARLINK-5829           
1 56347U 23058AG  24074.92139628 -.00000639  00000+0 -45170-4 0  9990
2 56347  97.6550  77.1343 0001557  96.2666 263.8735 15.01259138 49391
